CCSDS_OMM_VERS = 2.0
CREATION_DATE  = 
ORIGINATOR     = 

OBJECT_NAME    = SL-14 R/B
OBJECT_ID      = 1991-042B
CENTER_NAME    = EARTH
REF_FRAME      = TEME
TIME_SYSTEM    = UTC
MEAN_ELEMENT_THEORY = SGP/SGP4

EPOCH          = 2026-01-26T03:33:44.087616
MEAN_MOTION    = 14.81788256
ECCENTRICITY   = .0017731
INCLINATION    = 82.4912
RA_OF_ASC_NODE = 260.0839
ARG_OF_PERICENTER = 25.5913
MEAN_ANOMALY   = 334.6174

EPHEMERIS_TYPE = 0
CLASSIFICATION_TYPE = U
NORAD_CAT_ID   = 21423
ELEMENT_SET_NO = 999
REV_AT_EPOCH   = 84677
BSTAR          = .81126367E-4
MEAN_MOTION_DOT = .665E-5
MEAN_MOTION_DDOT = 0

CCSDS_OMM_VERS = 2.0
CREATION_DATE  = 
ORIGINATOR     = 

OBJECT_NAME    = ERS-1
OBJECT_ID      = 1991-050A
CENTER_NAME    = EARTH
REF_FRAME      = TEME
TIME_SYSTEM    = UTC
MEAN_ELEMENT_THEORY = SGP/SGP4

EPOCH          = 2026-01-26T12:05:22.996896
MEAN_MOTION    = 14.39410602
ECCENTRICITY   = .0031418
INCLINATION    = 98.7898
RA_OF_ASC_NODE = 43.6780
ARG_OF_PERICENTER = 329.1557
MEAN_ANOMALY   = 30.7783

EPHEMERIS_TYPE = 0
CLASSIFICATION_TYPE = U
NORAD_CAT_ID   = 21574
ELEMENT_SET_NO = 999
REV_AT_EPOCH   = 80966
BSTAR          = .20094E-3
MEAN_MOTION_DOT = .582E-5
MEAN_MOTION_DDOT = 0

CCSDS_OMM_VERS = 2.0
CREATION_DATE  = 
ORIGINATOR     = 

OBJECT_NAME    = ARIANE 40 R/B
OBJECT_ID      = 1991-050F
CENTER_NAME    = EARTH
REF_FRAME      = TEME
TIME_SYSTEM    = UTC
MEAN_ELEMENT_THEORY = SGP/SGP4

EPOCH          = 2026-01-26T04:04:07.270176
MEAN_MOTION    = 14.42858724
ECCENTRICITY   = .0003002
INCLINATION    = 98.2101
RA_OF_ASC_NODE = 79.9836
ARG_OF_PERICENTER = 180.6329
MEAN_ANOMALY   = 179.4858

EPHEMERIS_TYPE = 0
CLASSIFICATION_TYPE = U
NORAD_CAT_ID   = 21610
ELEMENT_SET_NO = 999
REV_AT_EPOCH   = 81286
BSTAR          = .1848E-3
MEAN_MOTION_DOT = .575E-5
MEAN_MOTION_DDOT = 0

CCSDS_OMM_VERS = 2.0
CREATION_DATE  = 
ORIGINATOR     = 

OBJECT_NAME    = INTERCOSMOS 25
OBJECT_ID      = 1991-086A
CENTER_NAME    = EARTH
REF_FRAME      = TEME
TIME_SYSTEM    = UTC
MEAN_ELEMENT_THEORY = SGP/SGP4

EPOCH          = 2026-01-26T07:15:17.124192
MEAN_MOTION    = 12.11882416
ECCENTRICITY   = .1486215
INCLINATION    = 82.6090
RA_OF_ASC_NODE = 335.6232
ARG_OF_PERICENTER = 208.2740
MEAN_ANOMALY   = 142.9281

EPHEMERIS_TYPE = 0
CLASSIFICATION_TYPE = U
NORAD_CAT_ID   = 21819
ELEMENT_SET_NO = 999
REV_AT_EPOCH   = 49155
BSTAR          = .39426E-3
MEAN_MOTION_DOT = .1999E-4
MEAN_MOTION_DDOT = 0

CCSDS_OMM_VERS = 2.0
CREATION_DATE  = 
ORIGINATOR     = 

OBJECT_NAME    = SL-8 R/B
OBJECT_ID      = 1992-008B
CENTER_NAME    = EARTH
REF_FRAME      = TEME
TIME_SYSTEM    = UTC
MEAN_ELEMENT_THEORY = SGP/SGP4

EPOCH          = 2026-01-26T11:54:16.826112
MEAN_MOTION    = 13.75968384
ECCENTRICITY   = .0033342
INCLINATION    = 82.9285
RA_OF_ASC_NODE = 299.1632
ARG_OF_PERICENTER = 252.1645
MEAN_ANOMALY   = 281.9126

EPHEMERIS_TYPE = 0
CLASSIFICATION_TYPE = U
NORAD_CAT_ID   = 21876
ELEMENT_SET_NO = 999
REV_AT_EPOCH   = 70361
BSTAR          = .80447E-4
MEAN_MOTION_DOT = .93E-6
MEAN_MOTION_DDOT = 0

CCSDS_OMM_VERS = 2.0
CREATION_DATE  = 
ORIGINATOR     = 

OBJECT_NAME    = SL-8 R/B
OBJECT_ID      = 1992-020B
CENTER_NAME    = EARTH
REF_FRAME      = TEME
TIME_SYSTEM    = UTC
MEAN_ELEMENT_THEORY = SGP/SGP4

EPOCH          = 2026-01-26T12:04:38.278848
MEAN_MOTION    = 13.75541934
ECCENTRICITY   = .003
INCLINATION    = 82.9308
RA_OF_ASC_NODE = 185.0760
ARG_OF_PERICENTER = 57.1224
MEAN_ANOMALY   = 3.2566

EPHEMERIS_TYPE = 0
CLASSIFICATION_TYPE = U
NORAD_CAT_ID   = 21938
ELEMENT_SET_NO = 999
REV_AT_EPOCH   = 69533
BSTAR          = .18712E-3
MEAN_MOTION_DOT = .196E-5
MEAN_MOTION_DDOT = 0

CCSDS_OMM_VERS = 2.0
CREATION_DATE  = 
ORIGINATOR     = 

OBJECT_NAME    = USA 81
OBJECT_ID      = 1992-023A
CENTER_NAME    = EARTH
REF_FRAME      = TEME
TIME_SYSTEM    = UTC
MEAN_ELEMENT_THEORY = SGP/SGP4

EPOCH          = 2026-01-26T11:08:52.648800
MEAN_MOTION    = 14.32349969
ECCENTRICITY   = .0002211
INCLINATION    = 85.0114
RA_OF_ASC_NODE = 155.7859
ARG_OF_PERICENTER = 113.4177
MEAN_ANOMALY   = 246.7248

EPHEMERIS_TYPE = 0
CLASSIFICATION_TYPE = U
NORAD_CAT_ID   = 21949
ELEMENT_SET_NO = 999
REV_AT_EPOCH   = 8874
BSTAR          = .12975E-3
MEAN_MOTION_DOT = .37E-5
MEAN_MOTION_DDOT = 0

CCSDS_OMM_VERS = 2.0
CREATION_DATE  = 
ORIGINATOR     = 

OBJECT_NAME    = COSMOS 2219
OBJECT_ID      = 1992-076A
CENTER_NAME    = EARTH
REF_FRAME      = TEME
TIME_SYSTEM    = UTC
MEAN_ELEMENT_THEORY = SGP/SGP4

EPOCH          = 2026-01-26T12:03:18.763200
MEAN_MOTION    = 14.14080516
ECCENTRICITY   = .0020794
INCLINATION    = 71.0610
RA_OF_ASC_NODE = 106.2646
ARG_OF_PERICENTER = 265.6444
MEAN_ANOMALY   = 94.2303

EPHEMERIS_TYPE = 0
CLASSIFICATION_TYPE = U
NORAD_CAT_ID   = 22219
ELEMENT_SET_NO = 999
REV_AT_EPOCH   = 71241
BSTAR          = -.77379E-4
MEAN_MOTION_DOT = -.195E-5
MEAN_MOTION_DDOT = 0

CCSDS_OMM_VERS = 2.0
CREATION_DATE  = 
ORIGINATOR     = 

OBJECT_NAME    = SL-16 R/B
OBJECT_ID      = 1992-076B
CENTER_NAME    = EARTH
REF_FRAME      = TEME
TIME_SYSTEM    = UTC
MEAN_ELEMENT_THEORY = SGP/SGP4

EPOCH          = 2026-01-26T03:13:01.464672
MEAN_MOTION    = 14.16850367
ECCENTRICITY   = .00123206
INCLINATION    = 70.9995
RA_OF_ASC_NODE = 278.0179
ARG_OF_PERICENTER = 170.2979
MEAN_ANOMALY   = 297.8614

EPHEMERIS_TYPE = 0
CLASSIFICATION_TYPE = U
NORAD_CAT_ID   = 22220
ELEMENT_SET_NO = 999
REV_AT_EPOCH   = 71580
BSTAR          = -.21413058E-4
MEAN_MOTION_DOT = -.91E-6
MEAN_MOTION_DDOT = 0

CCSDS_OMM_VERS = 2.0
CREATION_DATE  = 
ORIGINATOR     = 

OBJECT_NAME    = COSMOS 2221
OBJECT_ID      = 1992-080A
CENTER_NAME    = EARTH
REF_FRAME      = TEME
TIME_SYSTEM    = UTC
MEAN_ELEMENT_THEORY = SGP/SGP4

EPOCH          = 2026-01-26T07:13:49.480896
MEAN_MOTION    = 14.96006128
ECCENTRICITY   = .001402
INCLINATION    = 82.5063
RA_OF_ASC_NODE = 319.6705
ARG_OF_PERICENTER = 342.2439
MEAN_ANOMALY   = 17.8291

EPHEMERIS_TYPE = 0
CLASSIFICATION_TYPE = U
NORAD_CAT_ID   = 22236
ELEMENT_SET_NO = 999
REV_AT_EPOCH   = 77445
BSTAR          = .32355E-3
MEAN_MOTION_DOT = .366E-4
MEAN_MOTION_DDOT = 0

CCSDS_OMM_VERS = 2.0
CREATION_DATE  = 
ORIGINATOR     = 

OBJECT_NAME    = SL-16 R/B
OBJECT_ID      = 1992-093B
CENTER_NAME    = EARTH
REF_FRAME      = TEME
TIME_SYSTEM    = UTC
MEAN_ELEMENT_THEORY = SGP/SGP4

EPOCH          = 2026-01-26T11:29:17.336832
MEAN_MOTION    = 14.15443614
ECCENTRICITY   = .0004568
INCLINATION    = 71.0220
RA_OF_ASC_NODE = 92.8819
ARG_OF_PERICENTER = 339.4115
MEAN_ANOMALY   = 20.6824

EPHEMERIS_TYPE = 0
CLASSIFICATION_TYPE = U
NORAD_CAT_ID   = 22285
ELEMENT_SET_NO = 999
REV_AT_EPOCH   = 70718
BSTAR          = .20769E-4
MEAN_MOTION_DOT = -.7E-7
MEAN_MOTION_DDOT = 0

CCSDS_OMM_VERS = 2.0
CREATION_DATE  = 
ORIGINATOR     = 

OBJECT_NAME    = COSMOS 2228
OBJECT_ID      = 1992-094A
CENTER_NAME    = EARTH
REF_FRAME      = TEME
TIME_SYSTEM    = UTC
MEAN_ELEMENT_THEORY = SGP/SGP4

EPOCH          = 2026-01-26T11:29:43.879776
MEAN_MOTION    = 14.96985789
ECCENTRICITY   = .001963
INCLINATION    = 82.5175
RA_OF_ASC_NODE = 277.7264
ARG_OF_PERICENTER = 84.0688
MEAN_ANOMALY   = 276.2771

EPHEMERIS_TYPE = 0
CLASSIFICATION_TYPE = U
NORAD_CAT_ID   = 22286
ELEMENT_SET_NO = 999
REV_AT_EPOCH   = 76974
BSTAR          = .26416E-3
MEAN_MOTION_DOT = .3075E-4
MEAN_MOTION_DDOT = 0

